STARLINK-32394          
1 61853U 24202J   26068.51193400 -.00000553  00000+0 -10569-4 0  9997
2 61853  43.0064 238.7215 0002321 285.2076  74.8519 15.27570555 75309
FLOCK 4G-1              
1 62666U 25009BK  26068.75951132  .00013534  00000+0  50654-3 0  9995
2 62666  97.4059 151.3158 0003180 323.1401  36.9619 15.27421081 63725
